*******************************************************************************
Ephemeris / WWW_USER Mon Mar 24 09:04:24 2025 Pasadena, USA      / Horizons    
*******************************************************************************
Target body name: (2017 UX51)                     {source: JPL#22}
Center body name: Earth (399)                     {source: DE441}
Center-site name: Mauna Kea
*******************************************************************************
Start time      : A.D. 2018-Oct-27 04:00:00.0000 UT      
Stop  time      : A.D. 2018-Oct-27 16:11:00.0000 UT      
Step-size       : 1 minutes
*******************************************************************************
Target pole/equ : undefined
Target radii    : undefined                                                    
Center geodetic : 204.5278, 19.8260847, 4.21024   {E-lon(deg),Lat(deg),Alt(km)}
Center cylindric: 204.5278, 6006.35451, 2151.0229 {E-lon(deg),Dxy(km),Dz(km)}
Center pole/equ : ITRF93                          {East-longitude positive}
Center radii    : 6378.137, 6378.137, 6356.752 km {Equator_a, b, pole_c}       
Target primary  : Sun
Vis. interferer : MOON (R_eq= 1737.400) km        {source: DE441}
Rel. light bend : Sun                             {source: DE441}
Rel. lght bnd GM: 1.3271E+11 km^3/s^2                                          
Small-body perts: Yes                             {source: SB441-N16}
Atmos refraction: NO (AIRLESS)
RA format       : HMS
Time format     : CAL 
Calendar mode   : Mixed Julian/Gregorian
RTS-only print  : NO       
EOP file        : eop.250321.p250617                                           
EOP coverage    : DATA-BASED 1962-JAN-20 TO 2025-MAR-21. PREDICTS-> 2025-JUN-16
Units conversion: 1 au= 149597870.700 km, c= 299792.458 km/s, 1 day= 86400.0 s 
Table cut-offs 1: Elevation (-90.0deg=NO ),Airmass (>38.000=NO), Daylight (YES)
Table cut-offs 2: Solar elongation (  0.0,180.0=NO ),Local Hour Angle( 0.0=NO )
Table cut-offs 3: RA/DEC angular rate (     0.0=NO )                           
*******************************************************************************
Initial IAU76/J2000 heliocentric ecliptic osculating elements (au, days, deg.):
  EPOCH=  2458433.5 ! 2018-Nov-11.00 (TDB)         Residual RMS= .12444        
   EC= .7474905367293002   QR= 7.612253692784782   TP= 2459819.8104231078      
   OM= 217.7952286585891   W=  255.0338939179157   IN= 90.52400691057457       
  Equivalent ICRF heliocentric cartesian coordinates (au, au/d):
   X= 8.209785034050050E+00  Y= 6.297741083246843E+00  Z= 1.446459094674425E+00
  VX=-3.080259200599625E-03 VY=-2.498125597102637E-05 VZ=-6.110805734701701E-03
Asteroid physical parameters (km, seconds, rotational period in hours):        
   GM= n.a.                RAD= n.a.               ROTPER= n.a.                
   H= 11.                  G= .150                 B-V= n.a.                   
                           ALBEDO= n.a.            STYP= n.a.                  
*******************************************************************************
 Date__(UT)__HR:MN     R.A._________(ICRF)_________DEC
******************************************************
$$SOE
 2018-Oct-27 14:15  m  02 31 43.852678 +07 56 44.22386
 2018-Oct-27 14:16  m  02 31 43.837857 +07 56 44.05349
 2018-Oct-27 14:17  m  02 31 43.823037 +07 56 43.88312
 2018-Oct-27 14:18  m  02 31 43.808217 +07 56 43.71275
 2018-Oct-27 14:19  m  02 31 43.793399 +07 56 43.54238
 2018-Oct-27 14:20  m  02 31 43.778581 +07 56 43.37201
 2018-Oct-27 14:21  m  02 31 43.763765 +07 56 43.20163
 2018-Oct-27 14:22  m  02 31 43.748949 +07 56 43.03126
 2018-Oct-27 14:23  m  02 31 43.734134 +07 56 42.86088
 2018-Oct-27 14:24  m  02 31 43.719320 +07 56 42.69050
 2018-Oct-27 14:25  m  02 31 43.704507 +07 56 42.52012
 2018-Oct-27 14:26  m  02 31 43.689695 +07 56 42.34974
 2018-Oct-27 14:27  m  02 31 43.674884 +07 56 42.17936
 2018-Oct-27 14:28  m  02 31 43.660074 +07 56 42.00898
 2018-Oct-27 14:29  m  02 31 43.645265 +07 56 41.83860
 2018-Oct-27 14:30  m  02 31 43.630456 +07 56 41.66821
 2018-Oct-27 14:31  m  02 31 43.615649 +07 56 41.49783
 2018-Oct-27 14:32  m  02 31 43.600843 +07 56 41.32744
 2018-Oct-27 14:33  m  02 31 43.586037 +07 56 41.15706
 2018-Oct-27 14:34  m  02 31 43.571233 +07 56 40.98667
 2018-Oct-27 14:35  m  02 31 43.556429 +07 56 40.81628
 2018-Oct-27 14:36  m  02 31 43.541627 +07 56 40.64589
 2018-Oct-27 14:37  m  02 31 43.526825 +07 56 40.47550
 2018-Oct-27 14:38  m  02 31 43.512024 +07 56 40.30511
 2018-Oct-27 14:39  m  02 31 43.497224 +07 56 40.13471
 2018-Oct-27 14:40  m  02 31 43.482426 +07 56 39.96432
 2018-Oct-27 14:41  m  02 31 43.467628 +07 56 39.79393
 2018-Oct-27 14:42  m  02 31 43.452831 +07 56 39.62353
 2018-Oct-27 14:43  m  02 31 43.438035 +07 56 39.45313
 2018-Oct-27 14:44  m  02 31 43.423240 +07 56 39.28274
 2018-Oct-27 14:45  m  02 31 43.408446 +07 56 39.11234
 2018-Oct-27 14:46  m  02 31 43.393653 +07 56 38.94194
 2018-Oct-27 14:47  m  02 31 43.378861 +07 56 38.77154
 2018-Oct-27 14:48  m  02 31 43.364070 +07 56 38.60114
 2018-Oct-27 14:49  m  02 31 43.349280 +07 56 38.43073
 2018-Oct-27 14:50  m  02 31 43.334491 +07 56 38.26033
 2018-Oct-27 14:51  m  02 31 43.319703 +07 56 38.08993
 2018-Oct-27 14:52  m  02 31 43.304916 +07 56 37.91952
 2018-Oct-27 14:53  m  02 31 43.290130 +07 56 37.74912
 2018-Oct-27 14:54  m  02 31 43.275345 +07 56 37.57871
 2018-Oct-27 14:55  m  02 31 43.260561 +07 56 37.40831
 2018-Oct-27 14:56  m  02 31 43.245778 +07 56 37.23790
 2018-Oct-27 14:57  m  02 31 43.230996 +07 56 37.06749
 2018-Oct-27 14:58  m  02 31 43.216215 +07 56 36.89708
 2018-Oct-27 14:59  m  02 31 43.201435 +07 56 36.72667
 2018-Oct-27 15:00  m  02 31 43.186656 +07 56 36.55626
 2018-Oct-27 15:01  m  02 31 43.171878 +07 56 36.38585
 2018-Oct-27 15:02  m  02 31 43.157101 +07 56 36.21544
 2018-Oct-27 15:03  m  02 31 43.142324 +07 56 36.04502
 2018-Oct-27 15:04  m  02 31 43.127549 +07 56 35.87461
 2018-Oct-27 15:05  m  02 31 43.112775 +07 56 35.70419
 2018-Oct-27 15:06  m  02 31 43.098002 +07 56 35.53378
 2018-Oct-27 15:07 Am  02 31 43.083230 +07 56 35.36336
 2018-Oct-27 15:08 Am  02 31 43.068459 +07 56 35.19295
 2018-Oct-27 15:09 Am  02 31 43.053690 +07 56 35.02253
 2018-Oct-27 15:10 Am  02 31 43.038921 +07 56 34.85211
 2018-Oct-27 15:11 Am  02 31 43.024153 +07 56 34.68169
 2018-Oct-27 15:12 Am  02 31 43.009386 +07 56 34.51127
 2018-Oct-27 15:13 Am  02 31 42.994620 +07 56 34.34085
 2018-Oct-27 15:14 Am  02 31 42.979855 +07 56 34.17043
 2018-Oct-27 15:15 Am  02 31 42.965091 +07 56 34.00001
 2018-Oct-27 15:16 Am  02 31 42.950329 +07 56 33.82959
 2018-Oct-27 15:17 Am  02 31 42.935567 +07 56 33.65917
 2018-Oct-27 15:18 Am  02 31 42.920806 +07 56 33.48875
 2018-Oct-27 15:19 Am  02 31 42.906047 +07 56 33.31832
 2018-Oct-27 15:20 Am  02 31 42.891288 +07 56 33.14790
 2018-Oct-27 15:21 Am  02 31 42.876530 +07 56 32.97747
 2018-Oct-27 15:22 Am  02 31 42.861774 +07 56 32.80705
 2018-Oct-27 15:23 Am  02 31 42.847018 +07 56 32.63662
 2018-Oct-27 15:24 Am  02 31 42.832264 +07 56 32.46620
 2018-Oct-27 15:25 Am  02 31 42.817511 +07 56 32.29577
 2018-Oct-27 15:26 Am  02 31 42.802758 +07 56 32.12534
 2018-Oct-27 15:27 Am  02 31 42.788007 +07 56 31.95492
 2018-Oct-27 15:28 Am  02 31 42.773257 +07 56 31.78449
 2018-Oct-27 15:29 Am  02 31 42.758508 +07 56 31.61406
 2018-Oct-27 15:30 Am  02 31 42.743759 +07 56 31.44363
 2018-Oct-27 15:31 Am  02 31 42.729012 +07 56 31.27320
 2018-Oct-27 15:32 Am  02 31 42.714266 +07 56 31.10277
 2018-Oct-27 15:33 Nm  02 31 42.699521 +07 56 30.93234
 2018-Oct-27 15:34 Nm  02 31 42.684778 +07 56 30.76191
 2018-Oct-27 15:35 Nm  02 31 42.670035 +07 56 30.59148
 2018-Oct-27 15:36 Nm  02 31 42.655293 +07 56 30.42105
 2018-Oct-27 15:37 Nm  02 31 42.640552 +07 56 30.25062
 2018-Oct-27 15:38 Nm  02 31 42.625812 +07 56 30.08018
 2018-Oct-27 15:39 Nm  02 31 42.611074 +07 56 29.90975
 2018-Oct-27 15:40 Nm  02 31 42.596336 +07 56 29.73932
 2018-Oct-27 15:41 Nm  02 31 42.581600 +07 56 29.56888
 2018-Oct-27 15:42 Nm  02 31 42.566865 +07 56 29.39845
 2018-Oct-27 15:43 Nm  02 31 42.552130 +07 56 29.22801
 2018-Oct-27 15:44 Nm  02 31 42.537397 +07 56 29.05758
 2018-Oct-27 15:45 Nm  02 31 42.522665 +07 56 28.88715
 2018-Oct-27 15:46 Nm  02 31 42.507934 +07 56 28.71671
 2018-Oct-27 15:47 Nm  02 31 42.493204 +07 56 28.54627
 2018-Oct-27 15:48 Nm  02 31 42.478475 +07 56 28.37584
 2018-Oct-27 15:49 Nm  02 31 42.463747 +07 56 28.20540
 2018-Oct-27 15:50 Nm  02 31 42.449020 +07 56 28.03497
 2018-Oct-27 15:51 Nm  02 31 42.434294 +07 56 27.86453
 2018-Oct-27 15:52 Nm  02 31 42.419570 +07 56 27.69409
 2018-Oct-27 15:53 Nm  02 31 42.404846 +07 56 27.52366
 2018-Oct-27 15:54 Nm  02 31 42.390123 +07 56 27.35322
 2018-Oct-27 15:55 Nm  02 31 42.375402 +07 56 27.18278
 2018-Oct-27 15:56 Nm  02 31 42.360682 +07 56 27.01234
 2018-Oct-27 15:57 Nm  02 31 42.345962 +07 56 26.84191
 2018-Oct-27 15:58 Nm  02 31 42.331244 +07 56 26.67147
 2018-Oct-27 15:59 Cm  02 31 42.316527 +07 56 26.50103
 2018-Oct-27 16:00 Cm  02 31 42.301811 +07 56 26.33059
 2018-Oct-27 16:01 Cm  02 31 42.287096 +07 56 26.16015
 2018-Oct-27 16:02 Cm  02 31 42.272382 +07 56 25.98971
 2018-Oct-27 16:03 Cm  02 31 42.257670 +07 56 25.81927
 2018-Oct-27 16:04 Cm  02 31 42.242958 +07 56 25.64883
 2018-Oct-27 16:05 Cm  02 31 42.228247 +07 56 25.47840
 2018-Oct-27 16:06 Cm  02 31 42.213538 +07 56 25.30796
 2018-Oct-27 16:07 Cm  02 31 42.198829 +07 56 25.13752
 2018-Oct-27 16:08 Cm  02 31 42.184122 +07 56 24.96708
 2018-Oct-27 16:09 Cm  02 31 42.169416 +07 56 24.79664
 2018-Oct-27 16:10 Cm  02 31 42.154711 +07 56 24.62620
 2018-Oct-27 16:11 Cm  02 31 42.140007 +07 56 24.45576
